JILIN-1 GAOFEN 3A       
1 44312U 19032C   26200.27623091  .00006840  00000+0  21819-3 0  9990
2 44312  44.9737 180.2403 0004957 135.6447 224.4835 15.33244228392762
JILIN-1 GAOFEN 2A       
1 44777U 19075A   26200.23956789  .00007277  00000+0  18407-3 0  9995
2 44777  97.4955 284.7962 0004790 338.2729  21.8312 15.40074980369814
JILIN-1 GAOFEN 2B       
1 44836U 19086A   26200.25439237  .00002925  00000+0  13473-3 0  9992
2 44836  97.4865 272.0491 0013643 200.9945 159.0732 15.21024525365364
JILIN-1 GAOFEN 3E       
1 46457U 20065D   26200.24207038  .00046654  00000+0  42700-3 0  9995
2 46457  97.2199 253.6812 0009564  58.8566 301.3632 15.67617204324774
JILIN-1 GAOFEN 3F       
1 46458U 20065E   26200.26524096  .00036930  00000+0  38676-3 0  9997
2 46458  97.2159 250.8728 0010801  43.9178 316.2938 15.64265318324716
JILIN-1 GAOFEN 3G       
1 46459U 20065F   26200.24442094  .00081851  00000+0  48909-3 0  9995
2 46459  97.2208 258.2592 0005922 253.9197 106.1418 15.77617791324983
JILIN-1 GAOFEN 3H       
1 46460U 20065G   26200.30010088  .00060595  00000+0  44721-3 0  9998
2 46460  97.2160 254.4194 0007016 188.9434 171.1706 15.72796597324928
JILIN-1 GAOFEN 2D       
1 49256U 21086A   26200.28294136  .00002320  00000+0  14158-3 0  9996
2 49256  97.6512 322.9879 0033717  37.0574 323.2975 15.10883484265562
JILIN-1 GAOFEN 2F       
1 49338U 21097A   26200.28641777  .00002178  00000+0  14527-3 0  9997
2 49338  97.6735 326.4166 0019981 116.7060 243.6217 15.07966199261156
JILIN-1 GAOFEN 3D27     
1 52444U 22048B   26200.27301921  .00126312  00000+0  55719-3 0  9994
2 52444  97.5728 317.3399 0005717 234.8088 125.2646 15.84137399234541
JILIN-1 GAOFEN 3D28     
1 52445U 22048C   26200.25322694  .00184558  14480-4  63540-3 0  9992
2 52445  97.5677 317.6499 0005498 238.1599 121.9139 15.89582354234606
JILIN-1 GAOFEN 3D29     
1 52446U 22048D   26200.25740320  .00128858  00000+0  56250-3 0  9992
2 52446  97.5736 317.6892 0004723 222.1230 137.9677 15.84359682234565
JILIN-1 GAOFEN 3D31     
1 52448U 22048F   26200.31985556  .00276881  32509-4  67288-3 0  9990
2 52448  97.5734 319.1823 0006446 241.9659 118.0965 15.96242644234689
JILIN-1 GAOFEN 03D09    
1 53445U 22098B   26200.29815157  .00051263  00000+0  41400-3 0  9998
2 53445  97.5637 332.4870 0003753 219.3311 140.7678 15.70705742219660
JILIN-1 GAOFEN 03D43    
1 53448U 22098E   26200.32779477  .00068778  00000+0  47056-3 0  9991
2 53448  97.5617 333.7044 0003937 215.7013 144.3988 15.74568075219744
JILIN-1 GAOFEN 03D08    
1 54251U 22155A   26200.30017749  .00040376  00000+0  36648-3 0  9992
2 54251  97.6246 348.3601 0004485 213.9666 146.1308 15.67900988204846
