{"fetched_at":"2026-07-19T17:31:39.333Z","source":"https://celestrak.org/NORAD/elements/gp.php?NAME=JILIN&FORMAT=JSON","constellation":"jilin-1-gaofen","records":[{"OBJECT_NAME":"JILIN-1 GAOFEN 3A","OBJECT_ID":"2019-032C","EPOCH":"2026-07-19T06:37:46.350624","CLASSIFICATION_TYPE":"U","MEAN_MOTION":15.33244228,"ECCENTRICITY":0.00049579,"INCLINATION":44.9737,"RA_OF_ASC_NODE":180.2403,"ARG_OF_PERICENTER":135.6447,"MEAN_ANOMALY":224.4835,"EPHEMERIS_TYPE":0,"NORAD_CAT_ID":44312,"ELEMENT_SET_NO":999,"REV_AT_EPOCH":39276,"BSTAR":0.00021819282,"MEAN_MOTION_DOT":0.0000684,"MEAN_MOTION_DDOT":0},{"OBJECT_NAME":"JILIN-1 GAOFEN 2A","OBJECT_ID":"2019-075A","EPOCH":"2026-07-19T05:44:58.665696","CLASSIFICATION_TYPE":"U","MEAN_MOTION":15.4007498,"ECCENTRICITY":0.00047901,"INCLINATION":97.4955,"RA_OF_ASC_NODE":284.7962,"ARG_OF_PERICENTER":338.2729,"MEAN_ANOMALY":21.8312,"EPHEMERIS_TYPE":0,"NORAD_CAT_ID":44777,"ELEMENT_SET_NO":999,"REV_AT_EPOCH":36981,"BSTAR":0.00018406949,"MEAN_MOTION_DOT":0.00007277,"MEAN_MOTION_DDOT":0},{"OBJECT_NAME":"JILIN-1 GAOFEN 2B","OBJECT_ID":"2019-086A","EPOCH":"2026-07-19T06:06:19.500768","CLASSIFICATION_TYPE":"U","MEAN_MOTION":15.21024525,"ECCENTRICITY":0.00136438,"INCLINATION":97.4865,"RA_OF_ASC_NODE":272.0491,"ARG_OF_PERICENTER":200.9945,"MEAN_ANOMALY":159.0732,"EPHEMERIS_TYPE":0,"NORAD_CAT_ID":44836,"ELEMENT_SET_NO":999,"REV_AT_EPOCH":36536,"BSTAR":0.00013472635,"MEAN_MOTION_DOT":0.00002925,"MEAN_MOTION_DDOT":0},{"OBJECT_NAME":"JILIN-1 GAOFEN 3E","OBJECT_ID":"2020-065D","EPOCH":"2026-07-19T05:48:34.880832","CLASSIFICATION_TYPE":"U","MEAN_MOTION":15.67617204,"ECCENTRICITY":0.00095644,"INCLINATION":97.2199,"RA_OF_ASC_NODE":253.6812,"ARG_OF_PERICENTER":58.8566,"MEAN_ANOMALY":301.3632,"EPHEMERIS_TYPE":0,"NORAD_CAT_ID":46457,"ELEMENT_SET_NO":999,"REV_AT_EPOCH":32477,"BSTAR":0.00042700372,"MEAN_MOTION_DOT":0.00046654,"MEAN_MOTION_DDOT":0},{"OBJECT_NAME":"JILIN-1 GAOFEN 3F","OBJECT_ID":"2020-065E","EPOCH":"2026-07-19T06:21:56.818944","CLASSIFICATION_TYPE":"U","MEAN_MOTION":15.64265318,"ECCENTRICITY":0.00108015,"INCLINATION":97.2159,"RA_OF_ASC_NODE":250.8728,"ARG_OF_PERICENTER":43.9178,"MEAN_ANOMALY":316.2938,"EPHEMERIS_TYPE":0,"NORAD_CAT_ID":46458,"ELEMENT_SET_NO":999,"REV_AT_EPOCH":32471,"BSTAR":0.00038675667,"MEAN_MOTION_DOT":0.0003693,"MEAN_MOTION_DDOT":0},{"OBJECT_NAME":"JILIN-1 GAOFEN 3G","OBJECT_ID":"2020-065F","EPOCH":"2026-07-19T05:51:57.969216","CLASSIFICATION_TYPE":"U","MEAN_MOTION":15.77617791,"ECCENTRICITY":0.00059229,"INCLINATION":97.2208,"RA_OF_ASC_NODE":258.2592,"ARG_OF_PERICENTER":253.9197,"MEAN_ANOMALY":106.1418,"EPHEMERIS_TYPE":0,"NORAD_CAT_ID":46459,"ELEMENT_SET_NO":999,"REV_AT_EPOCH":32498,"BSTAR":0.00048909382,"MEAN_MOTION_DOT":0.00081851,"MEAN_MOTION_DDOT":0},{"OBJECT_NAME":"JILIN-1 GAOFEN 3H","OBJECT_ID":"2020-065G","EPOCH":"2026-07-19T07:12:08.716032","CLASSIFICATION_TYPE":"U","MEAN_MOTION":15.72796597,"ECCENTRICITY":0.00070162,"INCLINATION":97.216,"RA_OF_ASC_NODE":254.4194,"ARG_OF_PERICENTER":188.9434,"MEAN_ANOMALY":171.1706,"EPHEMERIS_TYPE":0,"NORAD_CAT_ID":46460,"ELEMENT_SET_NO":999,"REV_AT_EPOCH":32492,"BSTAR":0.00044720608,"MEAN_MOTION_DOT":0.00060595,"MEAN_MOTION_DDOT":0},{"OBJECT_NAME":"JILIN-1 GAOFEN 2D","OBJECT_ID":"2021-086A","EPOCH":"2026-07-19T06:47:26.133504","CLASSIFICATION_TYPE":"U","MEAN_MOTION":15.10883484,"ECCENTRICITY":0.00337179,"INCLINATION":97.6512,"RA_OF_ASC_NODE":322.9879,"ARG_OF_PERICENTER":37.0574,"MEAN_ANOMALY":323.2975,"EPHEMERIS_TYPE":0,"NORAD_CAT_ID":49256,"ELEMENT_SET_NO":999,"REV_AT_EPOCH":26556,"BSTAR":0.00014158285,"MEAN_MOTION_DOT":0.0000232,"MEAN_MOTION_DDOT":0},{"OBJECT_NAME":"JILIN-1 GAOFEN 2F","OBJECT_ID":"2021-097A","EPOCH":"2026-07-19T06:52:26.495328","CLASSIFICATION_TYPE":"U","MEAN_MOTION":15.07966199,"ECCENTRICITY":0.00199814,"INCLINATION":97.6735,"RA_OF_ASC_NODE":326.4166,"ARG_OF_PERICENTER":116.706,"MEAN_ANOMALY":243.6217,"EPHEMERIS_TYPE":0,"NORAD_CAT_ID":49338,"ELEMENT_SET_NO":999,"REV_AT_EPOCH":26115,"BSTAR":0.0001452706,"MEAN_MOTION_DOT":0.00002178,"MEAN_MOTION_DDOT":0},{"OBJECT_NAME":"JILIN-1 GAOFEN 3D27","OBJECT_ID":"2022-048B","EPOCH":"2026-07-19T06:33:08.859744","CLASSIFICATION_TYPE":"U","MEAN_MOTION":15.84137399,"ECCENTRICITY":0.00057173,"INCLINATION":97.5728,"RA_OF_ASC_NODE":317.3399,"ARG_OF_PERICENTER":234.8088,"MEAN_ANOMALY":125.2646,"EPHEMERIS_TYPE":0,"NORAD_CAT_ID":52444,"ELEMENT_SET_NO":999,"REV_AT_EPOCH":23454,"BSTAR":0.0005571916,"MEAN_MOTION_DOT":0.00126312,"MEAN_MOTION_DDOT":0},{"OBJECT_NAME":"JILIN-1 GAOFEN 3D28","OBJECT_ID":"2022-048C","EPOCH":"2026-07-19T06:04:38.807616","CLASSIFICATION_TYPE":"U","MEAN_MOTION":15.89582354,"ECCENTRICITY":0.00054984,"INCLINATION":97.5677,"RA_OF_ASC_NODE":317.6499,"ARG_OF_PERICENTER":238.1599,"MEAN_ANOMALY":121.9139,"EPHEMERIS_TYPE":0,"NORAD_CAT_ID":52445,"ELEMENT_SET_NO":999,"REV_AT_EPOCH":23460,"BSTAR":0.00063539855,"MEAN_MOTION_DOT":0.00184558,"MEAN_MOTION_DDOT":0.000014479931},{"OBJECT_NAME":"JILIN-1 GAOFEN 3D29","OBJECT_ID":"2022-048D","EPOCH":"2026-07-19T06:10:39.636480","CLASSIFICATION_TYPE":"U","MEAN_MOTION":15.84359682,"ECCENTRICITY":0.00047239,"INCLINATION":97.5736,"RA_OF_ASC_NODE":317.6892,"ARG_OF_PERICENTER":222.123,"MEAN_ANOMALY":137.9677,"EPHEMERIS_TYPE":0,"NORAD_CAT_ID":52446,"ELEMENT_SET_NO":999,"REV_AT_EPOCH":23456,"BSTAR":0.00056250481,"MEAN_MOTION_DOT":0.00128858,"MEAN_MOTION_DDOT":0},{"OBJECT_NAME":"JILIN-1 GAOFEN 3D31","OBJECT_ID":"2022-048F","EPOCH":"2026-07-19T07:40:35.520384","CLASSIFICATION_TYPE":"U","MEAN_MOTION":15.96242644,"ECCENTRICITY":0.00064466,"INCLINATION":97.5734,"RA_OF_ASC_NODE":319.1823,"ARG_OF_PERICENTER":241.9659,"MEAN_ANOMALY":118.0965,"EPHEMERIS_TYPE":0,"NORAD_CAT_ID":52448,"ELEMENT_SET_NO":999,"REV_AT_EPOCH":23468,"BSTAR":0.00067288026,"MEAN_MOTION_DOT":0.00276881,"MEAN_MOTION_DDOT":0.000032508804},{"OBJECT_NAME":"JILIN-1 GAOFEN 03D09","OBJECT_ID":"2022-098B","EPOCH":"2026-07-19T07:09:20.295648","CLASSIFICATION_TYPE":"U","MEAN_MOTION":15.70705742,"ECCENTRICITY":0.00037532,"INCLINATION":97.5637,"RA_OF_ASC_NODE":332.487,"ARG_OF_PERICENTER":219.3311,"MEAN_ANOMALY":140.7678,"EPHEMERIS_TYPE":0,"NORAD_CAT_ID":53445,"ELEMENT_SET_NO":999,"REV_AT_EPOCH":21966,"BSTAR":0.00041400499,"MEAN_MOTION_DOT":0.00051263,"MEAN_MOTION_DDOT":0},{"OBJECT_NAME":"JILIN-1 GAOFEN 03D43","OBJECT_ID":"2022-098E","EPOCH":"2026-07-19T07:52:01.468128","CLASSIFICATION_TYPE":"U","MEAN_MOTION":15.74568075,"ECCENTRICITY":0.00039378,"INCLINATION":97.5617,"RA_OF_ASC_NODE":333.7044,"ARG_OF_PERICENTER":215.7013,"MEAN_ANOMALY":144.3988,"EPHEMERIS_TYPE":0,"NORAD_CAT_ID":53448,"ELEMENT_SET_NO":999,"REV_AT_EPOCH":21974,"BSTAR":0.00047055975,"MEAN_MOTION_DOT":0.00068778,"MEAN_MOTION_DDOT":0},{"OBJECT_NAME":"JILIN-1 GAOFEN 03D08","OBJECT_ID":"2022-155A","EPOCH":"2026-07-19T07:12:15.335136","CLASSIFICATION_TYPE":"U","MEAN_MOTION":15.67900988,"ECCENTRICITY":0.00044855,"INCLINATION":97.6246,"RA_OF_ASC_NODE":348.3601,"ARG_OF_PERICENTER":213.9666,"MEAN_ANOMALY":146.1308,"EPHEMERIS_TYPE":0,"NORAD_CAT_ID":54251,"ELEMENT_SET_NO":999,"REV_AT_EPOCH":20484,"BSTAR":0.00036647546,"MEAN_MOTION_DOT":0.00040376,"MEAN_MOTION_DDOT":0}]}
